[{"OBJECT_NAME":"STARLINK-34891","OBJECT_ID":"2025-190Y","EPOCH":"2025-11-12T06:30:08.027136","MEAN_MOTION":15.3022868,"ECCENTRICITY":9.919e-5,"INCLINATION":53.1593,"RA_OF_ASC_NODE":353.8639,"ARG_OF_PERICENTER":66.7194,"MEAN_ANOMALY":293.3911,"EPHEMERIS_TYPE":0,"CLASSIFICATION_TYPE":"U","NORAD_CAT_ID":65373,"ELEMENT_SET_NO":999,"REV_AT_EPOCH":1125,"BSTAR":0.0018251216,"MEAN_MOTION_DOT":0.00054138,"MEAN_MOTION_DDOT":0},{"OBJECT_NAME":"STARLINK-34900","OBJECT_ID":"2025-190Z","EPOCH":"2025-11-12T07:07:58.696896","MEAN_MOTION":15.30242542,"ECCENTRICITY":0.00014675,"INCLINATION":53.1615,"RA_OF_ASC_NODE":353.3241,"ARG_OF_PERICENTER":75.223,"MEAN_ANOMALY":284.8933,"EPHEMERIS_TYPE":0,"CLASSIFICATION_TYPE":"U","NORAD_CAT_ID":65374,"ELEMENT_SET_NO":999,"REV_AT_EPOCH":1126,"BSTAR":0.002284185,"MEAN_MOTION_DOT":0.00068003,"MEAN_MOTION_DDOT":0},{"OBJECT_NAME":"STARLINK-34305","OBJECT_ID":"2025-190AA","EPOCH":"2025-11-12T07:04:55.548768","MEAN_MOTION":15.30223673,"ECCENTRICITY":0.0001088,"INCLINATION":53.1634,"RA_OF_ASC_NODE":353.3056,"ARG_OF_PERICENTER":112.0236,"MEAN_ANOMALY":248.0881,"EPHEMERIS_TYPE":0,"CLASSIFICATION_TYPE":"U","NORAD_CAT_ID":65375,"ELEMENT_SET_NO":999,"REV_AT_EPOCH":1178,"BSTAR":0.0032615423,"MEAN_MOTION_DOT":0.00097585,"MEAN_MOTION_DDOT":0},{"OBJECT_NAME":"STARLINK-34249","OBJECT_ID":"2025-190AB","EPOCH":"2025-11-12T06:16:27.634944","MEAN_MOTION":15.30228359,"ECCENTRICITY":0.00012826,"INCLINATION":53.1592,"RA_OF_ASC_NODE":353.8058,"ARG_OF_PERICENTER":44.1146,"MEAN_ANOMALY":315.9957,"EPHEMERIS_TYPE":0,"CLASSIFICATION_TYPE":"U","NORAD_CAT_ID":65376,"ELEMENT_SET_NO":999,"REV_AT_EPOCH":1219,"BSTAR":0.0018864037,"MEAN_MOTION_DOT":0.00055982,"MEAN_MOTION_DDOT":0},{"OBJECT_NAME":"STARLINK-34879","OBJECT_ID":"2025-190AC","EPOCH":"2025-11-12T06:52:45.790176","MEAN_MOTION":15.30225093,"ECCENTRICITY":0.00011608,"INCLINATION":53.1616,"RA_OF_ASC_NODE":353.2564,"ARG_OF_PERICENTER":74.4297,"MEAN_ANOMALY":285.6832,"EPHEMERIS_TYPE":0,"CLASSIFICATION_TYPE":"U","NORAD_CAT_ID":65377,"ELEMENT_SET_NO":999,"REV_AT_EPOCH":1178,"BSTAR":0.0015795858,"MEAN_MOTION_DOT":0.00046755,"MEAN_MOTION_DDOT":0},{"OBJECT_NAME":"STARLINK-34912","OBJECT_ID":"2025-190AD","EPOCH":"2025-11-12T06:43:38.964576","MEAN_MOTION":15.3022787,"ECCENTRICITY":0.00014846,"INCLINATION":53.1606,"RA_OF_ASC_NODE":353.2126,"ARG_OF_PERICENTER":65.63,"MEAN_ANOMALY":294.4856,"EPHEMERIS_TYPE":0,"CLASSIFICATION_TYPE":"U","NORAD_CAT_ID":65378,"ELEMENT_SET_NO":999,"REV_AT_EPOCH":1178,"BSTAR":0.0015800682,"MEAN_MOTION_DOT":0.00046773,"MEAN_MOTION_DDOT":0},{"OBJECT_NAME":"STARLINK-34985","OBJECT_ID":"2025-191A","EPOCH":"2025-11-12T04:11:32.042688","MEAN_MOTION":15.05656094,"ECCENTRICITY":0.00021997,"INCLINATION":97.6027,"RA_OF_ASC_NODE":185.6404,"ARG_OF_PERICENTER":90.2693,"MEAN_ANOMALY":269.8785,"EPHEMERIS_TYPE":0,"CLASSIFICATION_TYPE":"U","NORAD_CAT_ID":65379,"ELEMENT_SET_NO":999,"REV_AT_EPOCH":1258,"BSTAR":0.00047713149,"MEAN_MOTION_DOT":6.832e-5,"MEAN_MOTION_DDOT":0},{"OBJECT_NAME":"STARLINK-35051","OBJECT_ID":"2025-191B","EPOCH":"2025-11-12T06:31:06.881952","MEAN_MOTION":15.05624251,"ECCENTRICITY":0.00017182,"INCLINATION":97.6026,"RA_OF_ASC_NODE":185.8222,"ARG_OF_PERICENTER":97.649,"MEAN_ANOMALY":262.4931,"EPHEMERIS_TYPE":0,"CLASSIFICATION_TYPE":"U","NORAD_CAT_ID":65380,"ELEMENT_SET_NO":999,"REV_AT_EPOCH":1261,"BSTAR":-0.0013938524,"MEAN_MOTION_DOT":-0.00020103,"MEAN_MOTION_DDOT":0},{"OBJECT_NAME":"STARLINK-35028","OBJECT_ID":"2025-191C","EPOCH":"2025-11-12T04:31:28.896096","MEAN_MOTION":15.05658084,"ECCENTRICITY":0.00014105,"INCLINATION":97.6026,"RA_OF_ASC_NODE":185.779,"ARG_OF_PERICENTER":91.6965,"MEAN_ANOMALY":268.4423,"EPHEMERIS_TYPE":0,"CLASSIFICATION_TYPE":"U","NORAD_CAT_ID":65381,"ELEMENT_SET_NO":999,"REV_AT_EPOCH":1259,"BSTAR":0.00061687011,"MEAN_MOTION_DOT":8.853e-5,"MEAN_MOTION_DDOT":0},{"OBJECT_NAME":"STARLINK-35032","OBJECT_ID":"2025-191D","EPOCH":"2025-11-12T06:59:00.674592","MEAN_MOTION":15.05661685,"ECCENTRICITY":0.00025383,"INCLINATION":97.6033,"RA_OF_ASC_NODE":185.7965,"ARG_OF_PERICENTER":88.6649,"MEAN_ANOMALY":271.4869,"EPHEMERIS_TYPE":0,"CLASSIFICATION_TYPE":"U","NORAD_CAT_ID":65382,"ELEMENT_SET_NO":999,"REV_AT_EPOCH":1260,"BSTAR":0.00070050788,"MEAN_MOTION_DOT":0.00010065,"MEAN_MOTION_DDOT":0},{"OBJECT_NAME":"STARLINK-35054","OBJECT_ID":"2025-191E","EPOCH":"2025-11-12T04:23:29.569632","MEAN_MOTION":15.05658082,"ECCENTRICITY":0.0001748,"INCLINATION":97.6031,"RA_OF_ASC_NODE":185.6317,"ARG_OF_PERICENTER":91.2612,"MEAN_ANOMALY":268.8815,"EPHEMERIS_TYPE":0,"CLASSIFICATION_TYPE":"U","NORAD_CAT_ID":65383,"ELEMENT_SET_NO":999,"REV_AT_EPOCH":1258,"BSTAR":0.0003300843,"MEAN_MOTION_DOT":4.706e-5,"MEAN_MOTION_DDOT":0},{"OBJECT_NAME":"STARLINK-35012","OBJECT_ID":"2025-191F","EPOCH":"2025-11-12T05:35:16.341792","MEAN_MOTION":15.05667454,"ECCENTRICITY":0.00021322,"INCLINATION":97.6019,"RA_OF_ASC_NODE":185.7181,"ARG_OF_PERICENTER":88.4632,"MEAN_ANOMALY":271.6839,"EPHEMERIS_TYPE":0,"CLASSIFICATION_TYPE":"U","NORAD_CAT_ID":65384,"ELEMENT_SET_NO":999,"REV_AT_EPOCH":1259,"BSTAR":0.0011393451,"MEAN_MOTION_DOT":0.00016425,"MEAN_MOTION_DDOT":0},{"OBJECT_NAME":"STARLINK-35073","OBJECT_ID":"2025-191G","EPOCH":"2025-11-12T05:11:21.014016","MEAN_MOTION":15.05662849,"ECCENTRICITY":0.00030936,"INCLINATION":97.6031,"RA_OF_ASC_NODE":185.7414,"ARG_OF_PERICENTER":86.6441,"MEAN_ANOMALY":273.514,"EPHEMERIS_TYPE":0,"CLASSIFICATION_TYPE":"U","NORAD_CAT_ID":65385,"ELEMENT_SET_NO":999,"REV_AT_EPOCH":1259,"BSTAR":0.00072772977,"MEAN_MOTION_DOT":0.00010459,"MEAN_MOTION_DDOT":0},{"OBJECT_NAME":"STARLINK-35066","OBJECT_ID":"2025-191H","EPOCH":"2025-11-12T04:43:29.085888","MEAN_MOTION":15.05681774,"ECCENTRICITY":0.00044313,"INCLINATION":97.5991,"RA_OF_ASC_NODE":185.771,"ARG_OF_PERICENTER":60.6625,"MEAN_ANOMALY":299.5044,"EPHEMERIS_TYPE":0,"CLASSIFICATION_TYPE":"U","NORAD_CAT_ID":65386,"ELEMENT_SET_NO":999,"REV_AT_EPOCH":1259,"BSTAR":0.0021975291,"MEAN_MOTION_DOT":0.00031822,"MEAN_MOTION_DDOT":0},{"OBJECT_NAME":"STARLINK-34703","OBJECT_ID":"2025-191J","EPOCH":"2025-11-12T05:03:22.529088","MEAN_MOTION":15.05660556,"ECCENTRICITY":0.00027969,"INCLINATION":97.6017,"RA_OF_ASC_NODE":185.7504,"ARG_OF_PERICENTER":75.5918,"MEAN_ANOMALY":284.5619,"EPHEMERIS_TYPE":0,"CLASSIFICATION_TYPE":"U","NORAD_CAT_ID":65387,"ELEMENT_SET_NO":999,"REV_AT_EPOCH":1259,"BSTAR":0.00091172341,"MEAN_MOTION_DOT":0.00013123,"MEAN_MOTION_DDOT":0},{"OBJECT_NAME":"STARLINK-34957","OBJECT_ID":"2025-191K","EPOCH":"2025-11-12T04:35:27.951936","MEAN_MOTION":15.0567604,"ECCENTRICITY":0.00012853,"INCLINATION":97.5987,"RA_OF_ASC_NODE":185.7745,"ARG_OF_PERICENTER":85.187,"MEAN_ANOMALY":274.9503,"EPHEMERIS_TYPE":0,"CLASSIFICATION_TYPE":"U","NORAD_CAT_ID":65388,"ELEMENT_SET_NO":999,"REV_AT_EPOCH":1259,"BSTAR":0.00043613702,"MEAN_MOTION_DOT":6.242e-5,"MEAN_MOTION_DDOT":0},{"OBJECT_NAME":"STARLINK-34993","OBJECT_ID":"2025-191L","EPOCH":"2025-11-12T05:39:15.582528","MEAN_MOTION":15.05668435,"ECCENTRICITY":0.00025837,"INCLINATION":97.6024,"RA_OF_ASC_NODE":185.7143,"ARG_OF_PERICENTER":90.5287,"MEAN_ANOMALY":269.6236,"EPHEMERIS_TYPE":0,"CLASSIFICATION_TYPE":"U","NORAD_CAT_ID":65389,"ELEMENT_SET_NO":999,"REV_AT_EPOCH":1259,"BSTAR":0.0012496941,"MEAN_MOTION_DOT":0.00018027,"MEAN_MOTION_DDOT":0},{"OBJECT_NAME":"STARLINK-35083","OBJECT_ID":"2025-191M","EPOCH":"2025-11-12T04:19:30.288288","MEAN_MOTION":15.05659355,"ECCENTRICITY":0.00020525,"INCLINATION":97.6025,"RA_OF_ASC_NODE":185.6363,"ARG_OF_PERICENTER":88.9721,"MEAN_ANOMALY":271.1741,"EPHEMERIS_TYPE":0,"CLASSIFICATION_TYPE":"U","NORAD_CAT_ID":65390,"ELEMENT_SET_NO":999,"REV_AT_EPOCH":1258,"BSTAR":0.00058235304,"MEAN_MOTION_DOT":8.354e-5,"MEAN_MOTION_DDOT":0},{"OBJECT_NAME":"STARLINK-34786","OBJECT_ID":"2025-191N","EPOCH":"2025-11-12T04:47:25.842624","MEAN_MOTION":15.05668486,"ECCENTRICITY":0.00027742,"INCLINATION":97.6017,"RA_OF_ASC_NODE":185.7648,"ARG_OF_PERICENTER":78.3827,"MEAN_ANOMALY":281.7711,"EPHEMERIS_TYPE":0,"CLASSIFICATION_TYPE":"U","NORAD_CAT_ID":65391,"ELEMENT_SET_NO":999,"REV_AT_EPOCH":1259,"BSTAR":0.0012662735,"MEAN_MOTION_DOT":0.00018267,"MEAN_MOTION_DDOT":0},{"OBJECT_NAME":"STARLINK-35082","OBJECT_ID":"2025-191P","EPOCH":"2025-11-12T04:27:29.868768","MEAN_MOTION":15.05655767,"ECCENTRICITY":0.00015006,"INCLINATION":97.6026,"RA_OF_ASC_NODE":185.7829,"ARG_OF_PERICENTER":90.3611,"MEAN_ANOMALY":269.7788,"EPHEMERIS_TYPE":0,"CLASSIFICATION_TYPE":"U","NORAD_CAT_ID":65392,"ELEMENT_SET_NO":999,"REV_AT_EPOCH":1259,"BSTAR":0.00057069465,"MEAN_MOTION_DOT":8.185e-5,"MEAN_MOTION_DDOT":0},{"OBJECT_NAME":"STARLINK-35097","OBJECT_ID":"2025-191Q","EPOCH":"2025-11-12T05:19:19.670016","MEAN_MOTION":15.05658969,"ECCENTRICITY":0.00029246,"INCLINATION":97.6024,"RA_OF_ASC_NODE":185.7347,"ARG_OF_PERICENTER":87.0054,"MEAN_ANOMALY":273.1507,"EPHEMERIS_TYPE":0,"CLASSIFICATION_TYPE":"U","NORAD_CAT_ID":65393,"ELEMENT_SET_NO":999,"REV_AT_EPOCH":1114,"BSTAR":0.00048980725,"MEAN_MOTION_DOT":7.016e-5,"MEAN_MOTION_DDOT":0},{"OBJECT_NAME":"STARLINK-35058","OBJECT_ID":"2025-191R","EPOCH":"2025-11-12T05:27:18.035712","MEAN_MOTION":15.05666944,"ECCENTRICITY":0.00026004,"INCLINATION":97.6027,"RA_OF_ASC_NODE":185.7268,"ARG_OF_PERICENTER":92.0592,"MEAN_ANOMALY":268.0932,"EPHEMERIS_TYPE":0,"CLASSIFICATION_TYPE":"U","NORAD_CAT_ID":65394,"ELEMENT_SET_NO":999,"REV_AT_EPOCH":1259,"BSTAR":0.0012287907,"MEAN_MOTION_DOT":0.00017723,"MEAN_MOTION_DDOT":0},{"OBJECT_NAME":"STARLINK-35094","OBJECT_ID":"2025-191S","EPOCH":"2025-11-12T05:31:17.282496","MEAN_MOTION":15.05661832,"ECCENTRICITY":0.00025971,"INCLINATION":97.603,"RA_OF_ASC_NODE":185.722,"ARG_OF_PERICENTER":89.6554,"MEAN_ANOMALY":270.4971,"EPHEMERIS_TYPE":0,"CLASSIFICATION_TYPE":"U","NORAD_CAT_ID":65395,"ELEMENT_SET_NO":999,"REV_AT_EPOCH":1260,"BSTAR":0.00076144859,"MEAN_MOTION_DOT":0.00010947,"MEAN_MOTION_DDOT":0}]
